start=new Date('2023-03-22T00:00:00.000Z').valueOf();
sats=[{"PERIOD":"95.590","EPHEMERIS_TYPE":"0","REF_FRAME":"TEME","MEAN_MOTION_DOT":"0.00022195","FILE":"3866953","TLE_LINE2":"2 46715  53.0525  68.7930 0001633  84.9701 275.1474 15.06437442133711","CLASSIFICATION_TYPE":"U","MEAN_ANOMALY":"275.1474","DECAY_DATE":null,"ARG_OF_PERICENTER":"84.9701","APOAPSIS":"548.230","NORAD_CAT_ID":"46715","BSTAR":"0.00150270000000","RA_OF_ASC_NODE":"68.7930","EPOCH":"2023-03-21T11:40:22.408608","PERIAPSIS":"545.968","MEAN_ELEMENT_THEORY":"SGP4","TLE_LINE1":"1 46715U 20073AX  23080.48637047  .00022195  00000-0  15027-2 0  9993","GP_ID":"228617363","REV_AT_EPOCH":"13371","TIME_SYSTEM":"UTC","OBJECT_NAME":"STARLINK-1817","ECCENTRICITY":"0.00016330","ELEMENT_SET_NO":"999","MEAN_MOTION_DDOT":"0.0000000000000","CENTER_NAME":"EARTH","OBJECT_TYPE":"PAYLOAD","SEMIMAJOR_AXIS":"6925.234","LAUNCH_DATE":"2020-10-18","RCS_SIZE":"LARGE","MEAN_MOTION":"15.06437442","COUNTRY_CODE":"US","INCLINATION":"53.0525","OBJECT_ID":"2020-073AX","SITE":"AFETR"},{"TLE_LINE1":"1 46716U 20073AY  23080.70062058  .00003709  00000-0  26778-3 0  9999","MEAN_ELEMENT_THEORY":"SGP4","EPOCH":"2023-03-21T16:48:53.618112","PERIAPSIS":"546.004","RA_OF_ASC_NODE":"82.8308","BSTAR":"0.00026778000000","TIME_SYSTEM":"UTC","OBJECT_NAME":"STARLINK-1818","REV_AT_EPOCH":"13353","GP_ID":"228616112","TLE_LINE2":"2 46716  53.0535  82.8308 0001774  95.4105 264.7086 15.06393941133538","FILE":"3866953","MEAN_MOTION_DOT":"0.00003709","REF_FRAME":"TEME","PERIOD":"95.593","EPHEMERIS_TYPE":"0","NORAD_CAT_ID":"46716","APOAPSIS":"548.461","ARG_OF_PERICENTER":"95.4105","DECAY_DATE":null,"CLASSIFICATION_TYPE":"U","MEAN_ANOMALY":"264.7086","COUNTRY_CODE":"US","MEAN_MOTION":"15.06393941","RCS_SIZE":"LARGE","SEMIMAJOR_AXIS":"6925.367","LAUNCH_DATE":"2020-10-18","SITE":"AFETR","OBJECT_ID":"2020-073AY","INCLINATION":"53.0535","MEAN_MOTION_DDOT":"0.0000000000000","ELEMENT_SET_NO":"999","ECCENTRICITY":"0.00017740","OBJECT_TYPE":"PAYLOAD","CENTER_NAME":"EARTH"},{"OBJECT_TYPE":"PAYLOAD","CENTER_NAME":"EARTH","MEAN_MOTION_DDOT":"0.0000000000000","ELEMENT_SET_NO":"999","ECCENTRICITY":"0.00016870","SITE":"AFETR","OBJECT_ID":"2020-073AZ","INCLINATION":"53.0531","COUNTRY_CODE":"US","MEAN_MOTION":"15.06437709","SEMIMAJOR_AXIS":"6925.233","LAUNCH_DATE":"2020-10-18","RCS_SIZE":"LARGE","NORAD_CAT_ID":"46717","APOAPSIS":"548.266","ARG_OF_PERICENTER":"82.3155","CLASSIFICATION_TYPE":"U","MEAN_ANOMALY":"277.8026","DECAY_DATE":null,"FILE":"3866730","TLE_LINE2":"2 46717  53.0531  69.3048 0001687  82.3155 277.8026 15.06437709133696","REF_FRAME":"TEME","MEAN_MOTION_DOT":"0.00024440","PERIOD":"95.590","EPHEMERIS_TYPE":"0","OBJECT_NAME":"STARLINK-1820","TIME_SYSTEM":"UTC","GP_ID":"228584607","REV_AT_EPOCH":"13369","TLE_LINE1":"1 46717U 20073AZ  23080.37211074  .00024440  00000-0  16523-2 0  9998","MEAN_ELEMENT_THEORY":"SGP4","EPOCH":"2023-03-21T08:55:50.367936","PERIAPSIS":"545.930","BSTAR":"0.00165230000000","RA_OF_ASC_NODE":"69.3048"},{"OBJECT_TYPE":"PAYLOAD","CENTER_NAME":"EARTH","MEAN_MOTION_DDOT":"0.0000000000000","ELEMENT_SET_NO":"999","ECCENTRICITY":"0.00015620","SITE":"AFETR","OBJECT_ID":"2020-073BA","INCLINATION":"53.0523","COUNTRY_CODE":"US","MEAN_MOTION":"15.06430474","LAUNCH_DATE":"2020-10-18","SEMIMAJOR_AXIS":"6925.255","RCS_SIZE":"LARGE","NORAD_CAT_ID":"46718","ARG_OF_PERICENTER":"104.8372","APOAPSIS":"548.202","MEAN_ANOMALY":"255.2790","CLASSIFICATION_TYPE":"U","DECAY_DATE":null,"FILE":"3866730","TLE_LINE2":"2 46718  53.0523  83.8175 0001562 104.8372 255.2790 15.06430474133503","MEAN_MOTION_DOT":"0.00020419","REF_FRAME":"TEME","EPHEMERIS_TYPE":"0","PERIOD":"95.590","TIME_SYSTEM":"UTC","OBJECT_NAME":"STARLINK-1821","GP_ID":"228584857","REV_AT_EPOCH":"13350","TLE_LINE1":"1 46718U 20073BA  23080.47851179  .00020419  00000-0  13846-2 0  9993","MEAN_ELEMENT_THEORY":"SGP4","PERIAPSIS":"546.038","EPOCH":"2023-03-21T11:29:03.418656","BSTAR":"0.00138460000000","RA_OF_ASC_NODE":"83.8175"},{"OBJECT_TYPE":"PAYLOAD","CENTER_NAME":"EARTH","MEAN_MOTION_DDOT":"0.0000000000000","ELEMENT_SET_NO":"999","ECCENTRICITY":"0.00015120","SITE":"AFETR","INCLINATION":"53.0541","OBJECT_ID":"2020-073BB","COUNTRY_CODE":"US","MEAN_MOTION":"15.06442467","RCS_SIZE":"LARGE","SEMIMAJOR_AXIS":"6925.218","LAUNCH_DATE":"2020-10-18","NORAD_CAT_ID":"46719","APOAPSIS":"548.130","ARG_OF_PERICENTER":"107.1486","DECAY_DATE":null,"MEAN_ANOMALY":"252.9668","CLASSIFICATION_TYPE":"U","TLE_LINE2":"2 46719  53.0541  50.0912 0001512 107.1486 252.9668 15.06442467133958","FILE":"3866730","REF_FRAME":"TEME","MEAN_MOTION_DOT":"0.00030312","EPHEMERIS_TYPE":"0","PERIOD":"95.589","OBJECT_NAME":"STARLINK-1822","TIME_SYSTEM":"UTC","REV_AT_EPOCH":"13395","GP_ID":"228585608","TLE_LINE1":"1 46719U 20073BB  23080.19702522  .00030312  00000-0  20428-2 0  9997","MEAN_ELEMENT_THEORY":"SGP4","PERIAPSIS":"546.036","EPOCH":"2023-03-21T04:43:42.979008","BSTAR":"0.00204280000000","RA_OF_ASC_NODE":"50.0912"},{"MEAN_MOTION_DDOT":"0.0000000000000","ELEMENT_SET_NO":"999","ECCENTRICITY":"0.00016520","OBJECT_TYPE":"PAYLOAD","CENTER_NAME":"EARTH","COUNTRY_CODE":"US","MEAN_MOTION":"15.06433536","LAUNCH_DATE":"2020-10-18","SEMIMAJOR_AXIS":"6925.246","RCS_SIZE":"LARGE","SITE":"AFETR","INCLINATION":"53.0525","OBJECT_ID":"2020-073BE","FILE":"3866657","TLE_LINE2":"2 46722  53.0525  83.7079 0001652  82.6493 277.4684 15.06433536133981","REF_FRAME":"TEME","MEAN_MOTION_DOT":"0.00018871","EPHEMERIS_TYPE":"0","PERIOD":"95.590","NORAD_CAT_ID":"46722","APOAPSIS":"548.255","ARG_OF_PERICENTER":"82.6493","MEAN_ANOMALY":"277.4684","CLASSIFICATION_TYPE":"U","DECAY_DATE":null,"TLE_LINE1":"1 46722U 20073BE  23080.50526081  .00018871  00000-0  12812-2 0  9994","MEAN_ELEMENT_THEORY":"SGP4","EPOCH":"2023-03-21T12:07:34.533984","PERIAPSIS":"545.967","BSTAR":"0.00128120000000","RA_OF_ASC_NODE":"83.7079","TIME_SYSTEM":"UTC","OBJECT_NAME":"STARLINK-1825","GP_ID":"228564047","REV_AT_EPOCH":"13398"},{"TLE_LINE2":"2 46723  53.0548  44.4853 0001340 107.8123 252.3012 15.06447801134040","FILE":"3866730","MEAN_MOTION_DOT":"0.00023325","REF_FRAME":"TEME","PERIOD":"95.589","EPHEMERIS_TYPE":"0","NORAD_CAT_ID":"46723","ARG_OF_PERICENTER":"107.8123","APOAPSIS":"547.995","DECAY_DATE":null,"CLASSIFICATION_TYPE":"U","MEAN_ANOMALY":"252.3012","TLE_LINE1":"1 46723U 20073BF  23080.33201971  .00023325  00000-0  15776-2 0  9996","MEAN_ELEMENT_THEORY":"SGP4","PERIAPSIS":"546.139","EPOCH":"2023-03-21T07:58:06.502944","RA_OF_ASC_NODE":"44.4853","BSTAR":"0.00157760000000","OBJECT_NAME":"STARLINK-1826","TIME_SYSTEM":"UTC","REV_AT_EPOCH":"13404","GP_ID":"228585107","MEAN_MOTION_DDOT":"0.0000000000000","ELEMENT_SET_NO":"999","ECCENTRICITY":"0.00013400","OBJECT_TYPE":"PAYLOAD","CENTER_NAME":"EARTH","COUNTRY_CODE":"US","MEAN_MOTION":"15.06447801","RCS_SIZE":"LARGE","LAUNCH_DATE":"2020-10-18","SEMIMAJOR_AXIS":"6925.202","SITE":"AFETR","INCLINATION":"53.0548","OBJECT_ID":"2020-073BF"},{"SITE":"AFETR","OBJECT_ID":"2020-073BH","INCLINATION":"53.0519","MEAN_MOTION":"15.06428936","RCS_SIZE":"LARGE","LAUNCH_DATE":"2020-10-18","SEMIMAJOR_AXIS":"6925.260","COUNTRY_CODE":"US","OBJECT_TYPE":"PAYLOAD","CENTER_NAME":"EARTH","ECCENTRICITY":"0.00014310","MEAN_MOTION_DDOT":"0.0000000000000","ELEMENT_SET_NO":"999","REV_AT_EPOCH":"13347","GP_ID":"228585357","TIME_SYSTEM":"UTC","OBJECT_NAME":"STARLINK-1828","PERIAPSIS":"546.134","EPOCH":"2023-03-21T06:27:52.341120","RA_OF_ASC_NODE":"84.7669","BSTAR":"0.00144910000000","TLE_LINE1":"1 46725U 20073BH  23080.26935580  .00021386  00000-0  14491-2 0  9998","MEAN_ELEMENT_THEORY":"SGP4","DECAY_DATE":null,"MEAN_ANOMALY":"274.4488","CLASSIFICATION_TYPE":"U","NORAD_CAT_ID":"46725","ARG_OF_PERICENTER":"85.6664","APOAPSIS":"548.116","PERIOD":"95.590","EPHEMERIS_TYPE":"0","TLE_LINE2":"2 46725  53.0519  84.7669 0001431  85.6664 274.4488 15.06428936133472","FILE":"3866730","REF_FRAME":"TEME","MEAN_MOTION_DOT":"0.00021386"},{"REF_FRAME":"TEME","MEAN_MOTION_DOT":"-0.00009522","TLE_LINE2":"2 46726  53.0531  67.8605 0001489  89.9098 270.2062 15.06388941133743","FILE":"3866953","PERIOD":"95.593","EPHEMERIS_TYPE":"0","ARG_OF_PERICENTER":"89.9098","APOAPSIS":"548.279","NORAD_CAT_ID":"46726","DECAY_DATE":null,"CLASSIFICATION_TYPE":"U","MEAN_ANOMALY":"270.2062","MEAN_ELEMENT_THEORY":"SGP4","TLE_LINE1":"1 46726U 20073BJ  23080.69184410 -.00009522  00000-0 -62141-3 0  9990","RA_OF_ASC_NODE":"67.8605","BSTAR":"-0.00062141000000","EPOCH":"2023-03-21T16:36:15.330240","PERIAPSIS":"546.216","TIME_SYSTEM":"UTC","OBJECT_NAME":"STARLINK-1829","REV_AT_EPOCH":"13374","GP_ID":"228617364","ELEMENT_SET_NO":"999","MEAN_MOTION_DDOT":"0.0000000000000","ECCENTRICITY":"0.00014890","CENTER_NAME":"EARTH","OBJECT_TYPE":"PAYLOAD","COUNTRY_CODE":"US","RCS_SIZE":"LARGE","SEMIMAJOR_AXIS":"6925.382","LAUNCH_DATE":"2020-10-18","MEAN_MOTION":"15.06388941","INCLINATION":"53.0531","OBJECT_ID":"2020-073BJ","SITE":"AFETR"},{"COUNTRY_CODE":"US","RCS_SIZE":"LARGE","LAUNCH_DATE":"2020-10-18","SEMIMAJOR_AXIS":"6925.181","MEAN_MOTION":"15.06454793","INCLINATION":"53.0540","OBJECT_ID":"2020-073BK","SITE":"AFETR","ELEMENT_SET_NO":"999","MEAN_MOTION_DDOT":"0.0000000000000","ECCENTRICITY":"0.00015880","CENTER_NAME":"EARTH","OBJECT_TYPE":"PAYLOAD","MEAN_ELEMENT_THEORY":"SGP4","TLE_LINE1":"1 46727U 20073BK  23080.18457877  .00033880  00000-0  22791-2 0  9993","RA_OF_ASC_NODE":"45.1474","BSTAR":"0.00227910000000","EPOCH":"2023-03-21T04:25:47.605728","PERIAPSIS":"545.946","OBJECT_NAME":"STARLINK-1830","TIME_SYSTEM":"UTC","REV_AT_EPOCH":"13402","GP_ID":"228585859","REF_FRAME":"TEME","MEAN_MOTION_DOT":"0.00033880","TLE_LINE2":"2 46727  53.0540  45.1474 0001588 113.4793 246.6363 15.06454793134024","FILE":"3866730","PERIOD":"95.589","EPHEMERIS_TYPE":"0","ARG_OF_PERICENTER":"113.4793","APOAPSIS":"548.145","NORAD_CAT_ID":"46727","DECAY_DATE":null,"MEAN_ANOMALY":"246.6363","CLASSIFICATION_TYPE":"U"}];
